[{"OBJECT_NAME":"STARLINK-4475","OBJECT_ID":"2022-101U","EPOCH":"2026-03-09T23:08:50.352288","MEAN_MOTION":15.08839652,"ECCENTRICITY":0.00012489,"INCLINATION":53.2168,"RA_OF_ASC_NODE":62.8856,"ARG_OF_PERICENTER":86.2164,"MEAN_ANOMALY":273.8971,"EPHEMERIS_TYPE":0,"CLASSIFICATION_TYPE":"U","NORAD_CAT_ID":53545,"ELEMENT_SET_NO":999,"REV_AT_EPOCH":19703,"BSTAR":4.1716288e-5,"MEAN_MOTION_DOT":3.76e-6,"MEAN_MOTION_DDOT":0},{"OBJECT_NAME":"UPPER FREE FLYER","OBJECT_ID":"2018-099F","EPOCH":"2026-03-09T16:53:56.769792","MEAN_MOTION":15.10728091,"ECCENTRICITY":0.00115819,"INCLINATION":97.4495,"RA_OF_ASC_NODE":120.4613,"ARG_OF_PERICENTER":289.4209,"MEAN_ANOMALY":70.5769,"EPHEMERIS_TYPE":0,"CLASSIFICATION_TYPE":"U","NORAD_CAT_ID":43763,"ELEMENT_SET_NO":999,"REV_AT_EPOCH":39752,"BSTAR":0.00029221901,"MEAN_MOTION_DOT":4.788e-5,"MEAN_MOTION_DDOT":0}]
